SIRION PATHFINDER-2     
1 43759U 18099B   26164.87831774  .00005228  00000+0  28715-3 0  9991
2 43759  97.4258 214.0142 0007447 318.7558  41.3111 15.14522315412128
CORVUS BC4              
1 43767U 18099K   26164.88040058  .00004584  00000+0  26694-3 0  9996
2 43767  97.4066 207.9572 0008631  23.8252 336.3377 15.12470412411907
M2 PATHFINDER           
1 45727U 20037E   26164.78830256  .00002277  00000+0  16628-3 0  9998
2 45727  97.8152 355.9823 0012231 156.5798 203.5988 15.04664966324982
NETSAT-4                
1 46504U 20068U   26164.94880505  .00018215  00000+0  40438-3 0  9991
2 46504  97.8597 172.9293 0004236 352.5099   7.6083 15.43767461315273
NETSAT-3                
1 46505U 20068V   26164.95258890  .00018833  00000+0  43497-3 0  9993
2 46505  97.8646 171.1538 0004664  13.5614 346.5757 15.42575692315189
NETSAT-1                
1 46506U 20068W   26164.94038927  .00013027  00000+0  39110-3 0  9997
2 46506  97.8740 165.5101 0005392  41.9562 318.2092 15.34574399314804
NETSAT-2                
1 46507U 20068X   26164.54018696  .00022485  00000+0  46446-3 0  9993
2 46507  97.8612 172.3690 0003899  37.7157 322.4364 15.45852892315174
GREENCUBE (IO-117)      
1 53109U 22080E   26164.29338770 -.00000003  00000+0  00000+0 0  9990
2 53109  70.1444 299.5995 0008910 290.4576  69.5127  6.42583230 91811
SITRO-AIS 5 (KATYS)     
1 57176U 23091L   26164.92953066  .00012990  00000+0  45713-3 0  9993
2 57176  97.5068 228.7977 0012764 113.5702 246.6880 15.29388150163842
SITRO-AIS 6 (CHIRKIN)   
1 57192U 23091AC  26164.90097488  .00010581  00000+0  41474-3 0  9990
2 57192  97.5076 227.9054 0013111 116.5648 243.6936 15.25878388163780
SITRO-AIS 8 (ANOKHIN)   
1 57193U 23091AD  26164.95223704  .00015051  00000+0  48744-3 0  9992
2 57193  97.5065 230.3961 0011823 109.8739 250.3778 15.32055948163953
SITRO-AIS 7 (FARTUSHNIY)
1 57194U 23091AE  26164.90345359  .00010106  00000+0  39999-3 0  9997
2 57194  97.5074 227.7346 0012949 117.4649 242.7908 15.25567045163774
SITRO-AIS 10 (BURDAEV)  
1 57199U 23091AK  26164.93232180  .00021902  00000+0  57726-3 0  9996
2 57199  97.5089 235.3965 0007698  89.8299 270.3828 15.38499403164264
SITRO-AIS 9 (SHCHUKIN)  
1 57201U 23091AM  26164.95768725  .00020584  00000+0  55130-3 0  9993
2 57201  97.5088 235.1551 0007946  89.8808 270.3347 15.38013813164250
SITRO-AIS 12 (SMIRENNIY)
1 57204U 23091AQ  26164.94892164  .00022000  00000+0  58354-3 0  9996
2 57204  97.5101 235.6114 0007504  85.0668 275.1434 15.38303697164275
SITRO-AIS 11 (SHEFFER)  
1 57208U 23091AU  26164.96322905  .00022352  00000+0  58473-3 0  9995
2 57208  97.5099 235.8704 0007376  84.9780 275.2307 15.38727673164298
SITRO-AIS 25            
1 59066U 24039R   26164.95922170  .00002529  00000+0  19876-3 0  9999
2 59066  95.3913 232.8742 0143883 340.1599  19.4063 14.93499697124241
SITRO-AIS 26            
1 59067U 24039S   26164.96015418  .00002483  00000+0  19614-3 0  9998
2 59067  95.3914 232.7731 0144225 340.7317  18.8486 14.93295906124233
SITRO-AIS 27            
1 59068U 24039T   26164.93130880  .00003277  00000+0  25576-3 0  9993
2 59068  95.3917 233.0233 0143172 339.4393  20.1105 14.93714843124259
SITRO-AIS 28            
1 59071U 24039U   26164.97580950  .00002922  00000+0  22820-3 0  9993
2 59071  95.3915 233.1011 0143114 339.1009  20.4401 14.93747652124260
GRBBETA                 
1 60237U 24128C   26164.90161066  .00003495  00000+0  24477-3 0  9990
2 60237  61.9894 227.7936 0041063 133.9799 226.4693 15.06620638105777
OOV-CUBE (TUBSAT-30)    
1 60240U 24128F   26164.52889216  .00002174  00000+0  17408-3 0  9995
2 60240  61.9948 238.3294 0045090 132.8997 227.5893 15.02760687105564
ROBUSTA-3A (MEDITERRAN*)
1 60243U 24128J   26164.89361399  .00006674  00000+0  39533-3 0  9997
2 60243  61.9858 219.8918 0041692 127.5356 232.9540 15.11644949105929
LASARSAT                
1 62391U 24247Q   26164.61689910  .00032689  00000+0  65515-3 0  9991
2 62391  44.9751 282.2745 0008375 311.5212  48.4959 15.46168743 82768
CROCUBE                 
1 62394U 24247T   26164.74812560  .00038699  00000+0  72514-3 0  9991
2 62394  44.9723 278.9259 0008204 315.9203  44.1032 15.48041306 82819
FORESAIL-1 PRIME        
1 66778U 25276DS  26164.76803563  .00004983  00000+0  24359-3 0  9992
2 66778  97.4204 238.1010 0003912 110.7328 249.4326 15.18672801 29880
KNACKSAT-2              
1 67683U 98067XZ  26164.69872930  .00046958  00000+0  57858-3 0  9990
2 67683  51.6303 312.0209 0009611 199.6131 160.4494 15.59677165 19734
