OBJECT_NAME,OBJECT_ID,EPOCH,MEAN_MOTION,ECCENTRICITY,INCLINATION,RA_OF_ASC_NODE,ARG_OF_PERICENTER,MEAN_ANOMALY,EPHEMERIS_TYPE,CLASSIFICATION_TYPE,NORAD_CAT_ID,ELEMENT_SET_NO,REV_AT_EPOCH,BSTAR,MEAN_MOTION_DOT,MEAN_MOTION_DDOT
SIRION PATHFINDER-2,2018-099B,2026-06-13T21:04:46.652736,15.14522315,.00074476,97.4258,214.0142,318.7558,41.3111,0,U,43759,999,41212,.28715224E-3,.5228E-4,0
CORVUS BC4,2018-099K,2026-06-13T21:07:46.610112,15.12470412,.0008631,97.4066,207.9572,23.8252,336.3377,0,U,43767,999,41190,.26693923E-3,.4584E-4,0
M2 PATHFINDER,2020-037E,2026-06-13T18:55:09.341184,15.04664966,.00122314,97.8152,355.9823,156.5798,203.5988,0,U,45727,999,32498,.16627516E-3,.2277E-4,0
NETSAT-4,2020-068U,2026-06-13T22:46:16.756320,15.43767461,.00042367,97.8597,172.9293,352.5099,7.6083,0,U,46504,999,31527,.40438021E-3,.18215E-3,0
NETSAT-3,2020-068V,2026-06-13T22:51:43.680960,15.42575692,.00046647,97.8646,171.1538,13.5614,346.5757,0,U,46505,999,31518,.4349714E-3,.18833E-3,0
NETSAT-1,2020-068W,2026-06-13T22:34:09.632928,15.34574399,.0005392,97.8740,165.5101,41.9562,318.2092,0,U,46506,999,31480,.3910956E-3,.13027E-3,0
NETSAT-2,2020-068X,2026-06-13T12:57:52.153344,15.45852892,.00038991,97.8612,172.3690,37.7157,322.4364,0,U,46507,999,31517,.46446011E-3,.22485E-3,0
GREENCUBE (IO-117),2022-080E,2026-06-13T07:02:28.697280,6.42583230,.00089108,70.1444,299.5995,290.4576,69.5127,0,U,53109,999,9181,0,-.3E-7,0
SITRO-AIS 5 (KATYS),2023-091L,2026-06-13T22:18:31.449024,15.29388150,.00127644,97.5068,228.7977,113.5702,246.6880,0,U,57176,999,16384,.45712768E-3,.1299E-3,0
SITRO-AIS 6 (CHIRKIN),2023-091AC,2026-06-13T21:37:24.229632,15.25878388,.00131114,97.5076,227.9054,116.5648,243.6936,0,U,57192,999,16378,.41473595E-3,.10581E-3,0
SITRO-AIS 8 (ANOKHIN),2023-091AD,2026-06-13T22:51:13.280256,15.32055948,.00118236,97.5065,230.3961,109.8739,250.3778,0,U,57193,999,16395,.48743694E-3,.15051E-3,0
SITRO-AIS 7 (FARTUSHNIY),2023-091AE,2026-06-13T21:40:58.390176,15.25567045,.0012949,97.5074,227.7346,117.4649,242.7908,0,U,57194,999,16377,.39999099E-3,.10106E-3,0
SITRO-AIS 10 (BURDAEV),2023-091AK,2026-06-13T22:22:32.603520,15.38499403,.00076985,97.5089,235.3965,89.8299,270.3828,0,U,57199,999,16426,.57725669E-3,.21902E-3,0
SITRO-AIS 9 (SHCHUKIN),2023-091AM,2026-06-13T22:59:04.178400,15.38013813,.00079468,97.5088,235.1551,89.8808,270.3347,0,U,57201,999,16425,.5513032E-3,.20584E-3,0
SITRO-AIS 12 (SMIRENNIY),2023-091AQ,2026-06-13T22:46:26.829696,15.38303697,.0007504,97.5101,235.6114,85.0668,275.1434,0,U,57204,999,16427,.58353696E-3,.22E-3,0
SITRO-AIS 11 (SHEFFER),2023-091AU,2026-06-13T23:07:02.989920,15.38727673,.00073762,97.5099,235.8704,84.9780,275.2307,0,U,57208,999,16429,.58473294E-3,.22352E-3,0
SITRO-AIS 25,2024-039R,2026-06-13T23:01:16.754880,14.93499697,.01438837,95.3913,232.8742,340.1599,19.4063,0,U,59066,999,12424,.19875784E-3,.2529E-4,0
SITRO-AIS 26,2024-039S,2026-06-13T23:02:37.321152,14.93295906,.01442259,95.3914,232.7731,340.7317,18.8486,0,U,59067,999,12423,.19614318E-3,.2483E-4,0
SITRO-AIS 27,2024-039T,2026-06-13T22:21:05.080320,14.93714843,.01431721,95.3917,233.0233,339.4393,20.1105,0,U,59068,999,12425,.25576316E-3,.3277E-4,0
SITRO-AIS 28,2024-039U,2026-06-13T23:25:09.940800,14.93747652,.01431144,95.3915,233.1011,339.1009,20.4401,0,U,59071,999,12426,.22819647E-3,.2922E-4,0
GRBBETA,2024-128C,2026-06-13T21:38:19.161024,15.06620638,.00410639,61.9894,227.7936,133.9799,226.4693,0,U,60237,999,10577,.24476948E-3,.3495E-4,0
OOV-CUBE (TUBSAT-30),2024-128F,2026-06-13T12:41:36.282624,15.02760687,.00450904,61.9948,238.3294,132.8997,227.5893,0,U,60240,999,10556,.17407525E-3,.2174E-4,0
ROBUSTA-3A (MEDITERRANEE),2024-128J,2026-06-13T21:26:48.248736,15.11644949,.00416924,61.9858,219.8918,127.5356,232.9540,0,U,60243,999,10592,.39533091E-3,.6674E-4,0
LASARSAT,2024-247Q,2026-06-13T14:48:20.082240,15.46168743,.0008375,44.9751,282.2745,311.5212,48.4959,0,U,62391,999,8276,.65515E-3,.32689E-3,0
CROCUBE,2024-247T,2026-06-13T17:57:18.051840,15.48041306,.00082044,44.9723,278.9259,315.9203,44.1032,0,U,62394,999,8281,.72514081E-3,.38699E-3,0
FORESAIL-1 PRIME,2025-276DS,2026-06-13T18:25:58.278432,15.18672801,.00039122,97.4204,238.1010,110.7328,249.4326,0,U,66778,999,2988,.24358739E-3,.4983E-4,0
KNACKSAT-2,1998-067XZ,2026-06-13T16:46:10.211520,15.59677165,.00096113,51.6303,312.0209,199.6131,160.4494,0,U,67683,999,1973,.57858406E-3,.46958E-3,0
